satname,norad_id,inclination_deg,eccentricity,mean_motion_rev_per_day,perigee_km,apogee_km,l1,l2
STARLINK-1335,45581,53.0544,0.0001367,15.06386209,546.3071247636026,548.2005266153465,1 45581U 20025BC  25324.65553723  .00008968  00000+0  62038-3 0  9996,2 45581  53.0544 206.0942 0001367  90.3327 269.7818 15.06386209309070
STARLINK-1337,45582,53.0538,0.000141,15.06392759,546.2572733734378,548.2102279251194,1 45582U 20025BD  25324.41225072  .00000609  00000+0  59815-4 0  9998,2 45582  53.0538 207.1855 0001410  99.0699 261.0449 15.06392759309034
STARLINK-1347,45586,53.0504,0.0009013,15.34434236,456.43592789520335,468.76704308915214,1 45586U 20025BH  25324.59729787  .00060372  00000+0  17796-2 0  9996,2 45586  53.0504 188.0937 0009013  87.3986 272.8047 15.34434236309318
STARLINK-1360,45588,53.0408,0.0001853,15.80980918,326.42287612519704,328.9080465173638,1 45588U 20025BK  25324.91668980  .00167402  00000+0  83106-3 0  9992,2 45588  53.0408  98.5725 0001853 260.1387 125.5971 15.80980918  5905
STARLINK-1364,45589,53.0542,0.0001467,15.06395317,546.2099599569838,548.2418614349826,1 45589U 20025BL  25323.95150801  .00001682  00000+0  13183-3 0  9999,2 45589  53.0542 209.2559 0001467  83.6252 276.4904 15.06395317308966
STARLINK-1365,45590,53.0538,0.0001692,15.06390992,546.0673926511272,548.410939945802,1 45590U 20025BM  25324.76332924  .00000924  00000+0  80951-4 0  9995,2 45590  53.0538 235.6056 0001692  94.9582 265.1600 15.06390992308680
STARLINK-1443,45660,53.053,0.000145,15.06403477,546.1967274588442,548.2050754502661,1 45660U 20035D   25324.35051529  .00002014  00000+0  15402-3 0  9998,2 45660  53.0530 197.4637 0001450  84.3062 275.8093 15.06403477302252
STARLINK-1446,45663,53.0247,0.0002031,15.35477922,458.1125789265034,460.8900276052909,1 45663U 20035G   25324.77540106  .00057271  00000+0  16360-2 0  9999,2 45663  53.0247 154.3891 0002031 116.6484 243.4726 15.35477922302899
STARLINK-1448,45665,53.0531,0.0001586,15.06388785,546.1475647784937,548.3442962440513,1 45665U 20035J   25324.68593640  .00003105  00000+0  22731-3 0  9999,2 45665  53.0531 195.9530 0001586  83.6463 276.4707 15.06388785302297
STARLINK-1451,45668,53.0542,0.000171,15.06429136,545.9380424001383,548.3064810676515,1 45668U 20035M   25324.35788890  .00007159  00000+0  49860-3 0  9994,2 45668  53.0542 197.7454 0001710 101.7246 258.3935 15.06429136302251
STARLINK-1452,45669,53.0391,0.0012608,15.28550923,471.49642245006544,488.79026216122384,1 45669U 20035N   25324.58059892  .00051126  00000+0  18121-2 0  9991,2 45669  53.0391 174.6963 0012608  89.5058 270.7385 15.28550923302592
STARLINK-1453,45670,53.0525,0.0001533,15.09917213,535.3927308425555,537.5127440560573,1 45670U 20035P   25324.91668980  .00022745  00000+0  14006-2 0  9997,2 45670  53.0525 164.8319 0001533  95.2320  48.1756 15.09917213  5744
STARLINK-1454,45671,53.0544,0.0001618,15.0639908,546.0938557543122,548.3348994601065,1 45671U 20035Q   25324.37999574  .00000058  00000+0  22775-4 0  9991,2 45671  53.0544 197.3321 0001618  91.7274 268.3901 15.06399080302249
STARLINK-1456,45673,53.0536,0.0001362,15.06389209,546.3013940183782,548.1878679746615,1 45673U 20035S   25324.06301266  .00007329  00000+0  51053-3 0  9992,2 45673  53.0536 198.7551 0001362  71.2572 288.8564 15.06389209302213
STARLINK-1457,45674,53.0526,0.0001147,15.43035637,436.3743723105472,437.9378005445733,1 45674U 20035T   25324.91668980  .00015874  00000+0  36273-3 0  9997,2 45674  53.0526 191.9006 0001147 101.9167 278.3619 15.43035637  5786
STARLINK-1458,45675,53.0534,0.000145,15.06399898,546.2076949673747,548.2160461398353,1 45675U 20035U   25324.65644867  .00007400  00000+0  51516-3 0  9990,2 45675  53.0534 196.0878 0001450  79.7854 280.3299 15.06399898302262
STARLINK-1460,45676,53.0532,0.0001453,15.06392631,546.2278865269436,548.2403993810858,1 45676U 20035V   25324.69329520  .00000755  00000+0  69569-4 0  9995,2 45676  53.0532 195.9223 0001453  92.4269 267.6887 15.06392631302267
STARLINK-1392,45677,53.0533,0.0001459,15.06398084,546.2070209971789,548.2278394199138,1 45677U 20035W   25324.37262345  .00002124  00000+0  16143-3 0  9993,2 45677  53.0533 197.3644 0001459  93.4085 266.7071 15.06398084302257
STARLINK-1394,45679,53.0531,0.0001467,15.06404789,546.1809339016518,548.2128268621564,1 45679U 20035Y   25324.03812286  .00004434  00000+0  31633-3 0  9990,2 45679  53.0531 188.8642 0001467  91.6959 268.4198 15.06404789302348
STARLINK-1402,45685,53.0509,0.0004175,15.28834681,476.43172163939926,482.15767710837645,1 45685U 20035AE  25324.75098961  .00049524  00000+0  17444-2 0  9994,2 45685  53.0509 175.3839 0004175 145.1967 214.9305 15.28834681302609
STARLINK-1404,45686,53.0541,0.0001429,15.06392786,546.2440324290637,548.2233033659486,1 45686U 20035AF  25324.32932098  .00001446  00000+0  11598-3 0  9992,2 45686  53.0541 187.5595 0001429  95.4809 264.6343 15.06392786302392
STARLINK-1413,45689,53.0484,0.0002231,15.06407956,545.6421342282392,548.7322138747013,1 45689U 20035AJ  25324.61311131  .00004701  00000+0  33419-3 0  9999,2 45689  53.0484 186.2832 0002231  65.7290 294.3931 15.06407956302341
STARLINK-1417,45693,53.0547,0.0001583,15.06458508,545.935990857155,548.1284994401694,1 45693U 20035AN  25323.34880171  .00012159  00000+0  83246-3 0  9997,2 45693  53.0547 191.9614 0001583 104.9123 255.2041 15.06458508302232
STARLINK-1420,45695,53.0528,0.0001382,15.06410677,546.2217560159761,548.1359133126771,1 45695U 20035AQ  25324.27859573 -.00004177  00000+0 -26160-3 0  9999,2 45695  53.0528 167.7741 0001382  95.7399 264.3748 15.06410677302661
STARLINK-1422,45696,53.0558,0.0001586,15.06398479,546.1178585675088,548.3145806087623,1 45696U 20035AR  25324.35511928  .00002707  00000+0  20054-3 0  9999,2 45696  53.0558 187.4438 0001586  85.0103 275.1067 15.06398479302386
STARLINK-1351,45697,53.0618,4.48e-05,15.06396669,546.9115109195764,547.5320230650987,1 45697U 20035AS  25324.59654367  .00000725  00000+0  67542-4 0  9993,2 45697  53.0618 166.3610 0000448 341.6569  18.4404 15.06396669302714
STARLINK-1398,45699,53.0457,0.0004016,15.55283235,398.6067914154446,404.0520588481104,1 45699U 20035AU  25324.45848964  .00115557  00000+0  16579-2 0  9990,2 45699  53.0457 119.9682 0004016 178.7389 181.3632 15.55283235303356
STARLINK-1400,45700,53.0525,0.0001508,15.06401224,546.1634645602771,548.2521485539337,1 45700U 20035AV  25324.30535434  .00002912  00000+0  21428-3 0  9992,2 45700  53.0525 167.6634 0001508  88.0348 272.0814 15.06401224302662
STARLINK-1403,45701,53.0524,0.0001496,15.06382299,546.2297692248048,548.3018497454032,1 45701U 20035AW  25324.53390586  .00011100  00000+0  76326-3 0  9991,2 45701  53.0524 166.6394 0001496  89.2283 270.8877 15.06382299302699
STARLINK-1407,45703,53.0398,0.0011631,15.43968303,426.4875226844997,442.33487230150877,1 45703U 20035AY  25324.70068541  .00023353  00000+0  51138-3 0  9992,2 45703  53.0398 119.2952 0011631 123.4276 236.7843 15.43968303303387
STARLINK-1411,45706,53.0498,0.0001467,15.43548623,434.64641549383487,436.6455794252897,1 45706U 20035BB  25323.80852285  .00037171  00000+0  82035-3 0  9994,2 45706  53.0498 150.7574 0001467 178.0012 182.0999 15.43548623302856
STARLINK-1423,45710,53.0534,0.0001419,15.06395792,546.2417460917886,548.2071636726841,1 45710U 20035BF  25324.55968074 -.00000722  00000+0 -29597-4 0  9995,2 45710  53.0534 166.5256 0001419  84.1428 275.9722 15.06395792302705
STARLINK-1433,45711,53.0524,0.0001424,15.06398354,546.2304323427797,548.202773048828,1 45711U 20035BG  25324.27586275  .00001474  00000+0  11782-3 0  9993,2 45711  53.0524 167.7959 0001424  92.3967 267.7185 15.06398354302656
STARLINK-1434,45712,53.0496,0.0008577,15.16745738,509.77090283781035,521.5965629229931,1 45712U 20035BH  25324.57408997  .00023640  00000+0  12015-2 0  9999,2 45712  53.0496 161.2502 0008577 118.7838 241.4018 15.16745738302785
STARLINK-1465,45731,53.0567,0.0001431,15.06409708,546.1907913553541,548.1728175971948,1 45731U 20038B   25324.50807110  .00000958  00000+0  83152-4 0  9995,2 45731  53.0567   6.7523 0001431  91.2710 268.8443 15.06409708299735
STARLINK-1471,45735,53.0509,0.0001329,15.41996939,439.3101308382347,441.1224491427147,1 45735U 20038F   25324.65342461  .00018402  00000+0  43360-3 0  9997,2 45735  53.0509 301.3924 0001329  72.6976 287.4174 15.41996939300677
STARLINK-1474,45738,53.0365,0.0004402,15.70855228,353.4869715720197,359.41610332038636,1 45738U 20038J   25324.21312550  .00092076  00000+0  72090-3 0  9999,2 45738  53.0365 256.8770 0004402  67.5635 292.5848 15.70855228301250
STARLINK-1475,45739,53.0434,0.0005639,15.90713025,296.52044944115914,304.0523753656671,1 45739U 20038K   25324.91668980  .00331636  52035-4  10518-2 0  9992,2 45739  53.0434 217.7320 0005639 114.3190 260.8320 15.90713025  5989
STARLINK-1480,45741,53.0557,0.0001423,15.06394662,546.2424387599185,548.2133976156347,1 45741U 20038M   25324.35695833  .00001080  00000+0  91410-4 0  9999,2 45741  53.0557   7.4299 0001423  90.9554 269.1598 15.06394662299722
STARLINK-1500,45744,53.0415,0.0001438,15.28687382,478.74903579207967,480.72135983617227,1 45744U 20038Q   25324.38144001  .00019405  00000+0  69707-3 0  9994,2 45744  53.0415 343.0594 0001438 320.8668  39.2227 15.28687382300065
STARLINK-1504,45746,53.0285,0.0002488,15.42389713,437.3625803135037,440.7548168931298,1 45746U 20038S   25324.67296642  .00061590  00000+0  14024-2 0  9990,2 45746  53.0285 304.3921 0002488  11.9352 348.1711 15.42389713300625
STARLINK-1506,45747,53.0652,0.0002491,15.22016426,498.0458806484294,501.4724485176248,1 45747U 20038T   25324.35568490  .00014612  00000+0  64452-3 0  9993,2 45747  53.0652 346.6264 0002491 329.6410  30.4441 15.22016426300011
STARLINK-1464,45751,53.0562,0.0001264,15.06406457,546.3164066776399,548.06712979025,1 45751U 20038X   25324.35878785  .00000973  00000+0  84159-4 0  9991,2 45751  53.0562 347.4246 0001264  88.4461 271.6672 15.06406457300001
